[{"OBJECT_NAME":"STARLINK-31701","OBJECT_ID":"2024-076U","EPOCH":"2026-03-09T05:46:27.549696","MEAN_MOTION":15.27682506,"ECCENTRICITY":0.00011889,"INCLINATION":43.0036,"RA_OF_ASC_NODE":11.5643,"ARG_OF_PERICENTER":283.6526,"MEAN_ANOMALY":76.4193,"EPHEMERIS_TYPE":0,"CLASSIFICATION_TYPE":"U","NORAD_CAT_ID":59582,"ELEMENT_SET_NO":999,"REV_AT_EPOCH":10634,"BSTAR":0.0018222761,"MEAN_MOTION_DOT":0.00050384,"MEAN_MOTION_DDOT":0},{"OBJECT_NAME":"OKEAN-1","OBJECT_ID":"1988-056A","EPOCH":"2026-03-09T21:19:04.260000","MEAN_MOTION":15.31672069,"ECCENTRICITY":0.00129431,"INCLINATION":82.4671,"RA_OF_ASC_NODE":262.7586,"ARG_OF_PERICENTER":168.0696,"MEAN_ANOMALY":192.0855,"EPHEMERIS_TYPE":0,"CLASSIFICATION_TYPE":"U","NORAD_CAT_ID":19274,"ELEMENT_SET_NO":999,"REV_AT_EPOCH":3511,"BSTAR":0.00038371192,"MEAN_MOTION_DOT":0.00011798,"MEAN_MOTION_DDOT":0}]
